OBJECT_NAME,OBJECT_ID,EPOCH,MEAN_MOTION,ECCENTRICITY,INCLINATION,RA_OF_ASC_NODE,ARG_OF_PERICENTER,MEAN_ANOMALY,EPHEMERIS_TYPE,CLASSIFICATION_TYPE,NORAD_CAT_ID,ELEMENT_SET_NO,REV_AT_EPOCH,BSTAR,MEAN_MOTION_DOT,MEAN_MOTION_DDOT
YAOGAN-27,2015-040A,2023-06-14T10:06:39.599424,13.15993983,.0007829,100.0940,186.3251,226.3226,133.7239,0,U,40878,999,37464,.30863E-4,-.31E-6,0
GSAT-6,2015-041A,2023-06-13T23:35:42.506304,1.00271347,.0002967,0.0673,99.5294,4.4238,234.5354,0,U,40880,999,2857,0,-.158E-5,0
INMARSAT 5-F3,2015-042A,2023-06-14T09:17:08.516832,1.00268666,.0000424,0.0235,2.0171,200.1980,19.0693,0,U,40882,999,2853,0,.52E-6,0
MUOS-4,2015-044A,2023-06-14T08:47:20.101632,1.00271793,.0056621,2.7079,21.4246,1.7349,86.1095,0,U,40887,999,2853,0,-.93E-6,0
GSAT0205 (GALILEO 9),2015-045A,2023-06-13T09:20:40.612416,1.70473978,.0003448,55.4046,251.9905,22.6605,337.3959,0,U,40889,999,4826,0,-.22E-6,0
GSAT0206 (GALILEO 10),2015-045B,2023-06-13T00:33:47.739744,1.70473944,.0001591,55.4039,251.9962,6.0531,353.9892,0,U,40890,999,4828,0,-.23E-6,0
TJS-1,2015-046A,2023-06-13T19:55:07.563360,1.00269304,.0003304,0.0450,71.7359,6.3979,277.5234,0,U,40892,999,2853,0,-.155E-5,0
GAOFEN 9-01,2015-047A,2023-06-14T11:06:17.991072,14.77540497,.0034181,97.7749,228.4120,123.2469,237.2025,0,U,40894,999,41760,.1227E-3,.834E-5,0
EXPRESS-AM8,2015-048A,2023-06-13T20:19:04.307232,1.00270749,.000016,0.0157,295.3313,37.6682,219.6603,0,U,40895,999,2835,0,-.11E-5,0
2015-049A,2015-049A,2023-06-14T11:17:12.491808,15.26357032,.0012435,97.4790,172.9308,169.2965,190.8541,0,U,40899,999,42818,.37688E-3,.9746E-4,0
ZDPS 2A,2015-049C,2023-06-14T00:15:13.104576,15.42073700,.0010148,97.4435,180.2642,134.8238,225.3836,0,U,40901,999,42875,.91109E-3,.39057E-3,0
ZDPS 2B,2015-049D,2023-06-14T11:47:09.291264,15.43432839,.0010251,97.4544,179.2033,130.6196,229.5945,0,U,40902,999,42882,.8053E-3,.36106E-3,0
KAITUO 1A,2015-049F,2023-06-14T11:07:17.991552,15.26356497,.0011618,97.4967,171.3055,175.2704,184.8646,0,U,40904,999,42789,.4825E-3,.12498E-3,0
XW-2C,2015-049H,2023-06-14T11:14:42.347616,15.26371903,.0012471,97.4927,172.5962,162.4772,197.6899,0,U,40906,999,42798,.404E-3,.10458E-3,0
XW-2D,2015-049J,2023-06-14T10:12:31.940352,15.28301811,.0011824,97.4908,173.0775,155.5722,204.6080,0,U,40907,999,42806,.49399E-3,.1358E-3,0
LILACSAT-2,2015-049K,2023-06-14T10:59:38.043744,15.19693737,.0013593,97.5240,168.5221,192.0063,168.0850,0,U,40908,999,42738,.23032E-3,.4858E-4,0
XW-2E,2015-049L,2023-06-14T12:28:50.553984,15.38253069,.0010951,97.4519,179.3857,126.5710,233.6544,0,U,40909,999,42873,.67017E-3,.25275E-3,0
XW-2F,2015-049M,2023-06-14T12:23:43.484064,15.37603183,.0011716,97.4611,178.6193,129.0210,231.2080,0,U,40910,999,42847,.67285E-3,.24853E-3,0
XW-2B,2015-049N,2023-06-14T11:40:29.259264,15.28079544,.0011757,97.4887,173.5777,156.8138,203.3634,0,U,40911,999,42795,.44896E-3,.12249E-3,0
KAITUO 1B,2015-049P,2023-06-14T11:36:51.029280,15.43718642,.0011099,97.4163,183.2113,97.1593,263.0917,0,U,40912,999,42919,.75495E-3,.34174E-3,0
COSMOS 2507,2015-050A,2023-06-13T21:30:15.533568,12.42902774,.0008158,82.4939,44.0206,224.1587,135.8842,0,U,40920,999,35032,.57368E-5,.11E-6,0
COSMOS 2508,2015-050B,2023-06-14T11:41:14.931168,12.42879403,.0012878,82.4891,42.5778,261.0264,98.9358,0,U,40921,999,35037,.158E-3,.32E-6,0
COSMOS 2509,2015-050C,2023-06-14T10:23:22.762176,12.42881305,.0015079,82.4892,42.6901,275.7297,84.2063,0,U,40922,999,35038,.12245E-3,.27E-6,0
PUJIANG 1 (PJ-1),2015-051A,2023-06-14T11:37:16.370400,15.54118569,.0007451,97.1203,167.5181,214.4412,145.6360,0,U,40925,999,43233,.54359E-3,.35337E-3,0
ASTROSAT,2015-052A,2023-06-14T06:27:39.217824,14.77572825,.0008933,5.9964,116.4752,241.2177,118.7053,0,U,40930,999,41678,.15032E-3,.1743E-4,0
LAPAN-A2,2015-052B,2023-06-14T09:22:23.274624,14.77237448,.0013601,5.9995,106.4578,256.0970,103.7644,0,U,40931,999,41693,.7005E-4,.1153E-4,0
EXACTVIEW 9,2015-052G,2023-06-14T06:38:26.705472,14.78544578,.0010635,6.0028,108.9269,247.4546,112.4456,0,U,40936,999,41686,.22945E-3,.2369E-4,0
BEIDOU-3S IGSO-2S,2015-053A,2023-06-13T20:14:42.082368,1.00256256,.0048253,50.9353,271.7022,194.0502,193.6668,0,U,40938,999,2833,0,-.161E-5,0
SKY MUSTER 1 (NBN1A),2015-054A,2023-06-13T22:14:42.702432,1.00270817,.0001707,0.0190,328.9108,113.9923,292.9913,0,U,40940,999,2823,0,-.277E-5,0
ARSAT 2,2015-054B,2023-06-13T19:59:52.058688,1.00271353,.0001674,0.0406,69.1792,3.6632,47.9936,0,U,40941,999,2829,0,-.223E-5,0
MORELOS 3,2015-056A,2023-06-14T10:45:48.506976,1.00268112,.0000901,3.2926,341.9934,176.5450,152.3105,0,U,40946,999,2826,0,-.42E-6,0
