YAOGAN-27               
1 40878U 15040A   23165.42129166 -.00000031  00000+0  30863-4 0  9993
2 40878 100.0940 186.3251 0007829 226.3226 133.7239 13.15993983374641
GSAT-6                  
1 40880U 15041A   23164.98313086 -.00000158  00000+0  00000+0 0  9998
2 40880   0.0673  99.5294 0002967   4.4238 234.5354  1.00271347 28574
INMARSAT 5-F3           
1 40882U 15042A   23165.38690413  .00000052  00000+0  00000+0 0  9990
2 40882   0.0235   2.0171 0000424 200.1980  19.0693  1.00268666 28536
MUOS-4                  
1 40887U 15044A   23165.36620488 -.00000093  00000+0  00000+0 0  9996
2 40887   2.7079  21.4246 0056621   1.7349  86.1095  1.00271793 28534
GSAT0205 (GALILEO 9)    
1 40889U 15045A   23164.38935894 -.00000022  00000+0  00000+0 0  9992
2 40889  55.4046 251.9905 0003448  22.6605 337.3959  1.70473978 48261
GSAT0206 (GALILEO 10)   
1 40890U 15045B   23164.02346921 -.00000023  00000+0  00000+0 0  9993
2 40890  55.4039 251.9962 0001591   6.0531 353.9892  1.70473944 48284
TJS-1                   
1 40892U 15046A   23164.82994865 -.00000155  00000+0  00000+0 0  9996
2 40892   0.0450  71.7359 0003304   6.3979 277.5234  1.00269304 28533
GAOFEN 9-01             
1 40894U 15047A   23165.46270823  .00000834  00000+0  12270-3 0  9990
2 40894  97.7749 228.4120 0034181 123.2469 237.2025 14.77540497417600
EXPRESS-AM8             
1 40895U 15048A   23164.84657763 -.00000110  00000+0  00000+0 0  9997
2 40895   0.0157 295.3313 0000160  37.6682 219.6603  1.00270749 28351
2015-049A               
1 40899U 15049A   23165.47028347  .00009746  00000+0  37688-3 0  9991
2 40899  97.4790 172.9308 0012435 169.2965 190.8541 15.26357032428186
ZDPS 2A                 
1 40901U 15049C   23165.01056834  .00039057  00000+0  91109-3 0  9993
2 40901  97.4435 180.2642 0010148 134.8238 225.3836 15.42073700428758
ZDPS 2B                 
1 40902U 15049D   23165.49107976  .00036106  00000+0  80530-3 0  9998
2 40902  97.4544 179.2033 0010251 130.6196 229.5945 15.43432839428822
KAITUO 1A               
1 40904U 15049F   23165.46340268  .00012498  00000+0  48250-3 0  9991
2 40904  97.4967 171.3055 0011618 175.2704 184.8646 15.26356497427891
XW-2C                   
1 40906U 15049H   23165.46854569  .00010458  00000+0  40400-3 0  9990
2 40906  97.4927 172.5962 0012471 162.4772 197.6899 15.26371903427981
XW-2D                   
1 40907U 15049J   23165.42536968  .00013580  00000+0  49399-3 0  9992
2 40907  97.4908 173.0775 0011824 155.5722 204.6080 15.28301811428062
LILACSAT-2              
1 40908U 15049K   23165.45807921  .00004858  00000+0  23032-3 0  9990
2 40908  97.5240 168.5221 0013593 192.0063 168.0850 15.19693737427380
XW-2E                   
1 40909U 15049L   23165.52002956  .00025275  00000+0  67017-3 0  9991
2 40909  97.4519 179.3857 0010951 126.5710 233.6544 15.38253069428730
XW-2F                   
1 40910U 15049M   23165.51647551  .00024853  00000+0  67285-3 0  9996
2 40910  97.4611 178.6193 0011716 129.0210 231.2080 15.37603183428478
XW-2B                   
1 40911U 15049N   23165.48644976  .00012249  00000+0  44896-3 0  9990
2 40911  97.4887 173.5777 0011757 156.8138 203.3634 15.28079544427953
KAITUO 1B               
1 40912U 15049P   23165.48392395  .00034174  00000+0  75495-3 0  9996
2 40912  97.4163 183.2113 0011099  97.1593 263.0917 15.43718642429195
COSMOS 2507             
1 40920U 15050A   23164.89601312  .00000011  00000+0  57368-5 0  9997
2 40920  82.4939  44.0206 0008158 224.1587 135.8842 12.42902774350321
COSMOS 2508             
1 40921U 15050B   23165.48697837  .00000032  00000+0  15800-3 0  9997
2 40921  82.4891  42.5778 0012878 261.0264  98.9358 12.42879403350370
COSMOS 2509             
1 40922U 15050C   23165.43290234  .00000027  00000+0  12245-3 0  9997
2 40922  82.4892  42.6901 0015079 275.7297  84.2063 12.42881305350381
PUJIANG 1 (PJ-1)        
1 40925U 15051A   23165.48421725  .00035337  00000+0  54359-3 0  9991
2 40925  97.1203 167.5181 0007451 214.4412 145.6360 15.54118569432333
ASTROSAT                
1 40930U 15052A   23165.26920391  .00001743  00000+0  15032-3 0  9996
2 40930   5.9964 116.4752 0008933 241.2177 118.7053 14.77572825416783
LAPAN-A2                
1 40931U 15052B   23165.39054716  .00001153  00000+0  70050-4 0  9997
2 40931   5.9995 106.4578 0013601 256.0970 103.7644 14.77237448416932
EXACTVIEW 9             
1 40936U 15052G   23165.27669798  .00002369  00000+0  22945-3 0  9990
2 40936   6.0028 108.9269 0010635 247.4546 112.4456 14.78544578416863
BEIDOU-3S IGSO-2S       
1 40938U 15053A   23164.84354262 -.00000161  00000+0  00000+0 0  9995
2 40938  50.9353 271.7022 0048253 194.0502 193.6668  1.00256256 28337
SKY MUSTER 1 (NBN1A)    
1 40940U 15054A   23164.92688313 -.00000277  00000+0  00000+0 0  9993
2 40940   0.0190 328.9108 0001707 113.9923 292.9913  1.00270817 28239
ARSAT 2                 
1 40941U 15054B   23164.83324142 -.00000223  00000+0  00000+0 0  9992
2 40941   0.0406  69.1792 0001674   3.6632  47.9936  1.00271353 28293
MORELOS 3               
1 40946U 15056A   23165.44847809 -.00000042  00000+0  00000+0 0  9996
2 40946   3.2926 341.9934 0000901 176.5450 152.3105  1.00268112 28264
